[{"OBJECT_NAME":"ELARASAT MMS-1","OBJECT_ID":"2025-135M","EPOCH":"2026-03-09T20:37:48.295200","MEAN_MOTION":15.21931569,"ECCENTRICITY":0.0004021,"INCLINATION":97.4601,"RA_OF_ASC_NODE":185.0311,"ARG_OF_PERICENTER":148.9941,"MEAN_ANOMALY":211.1534,"EPHEMERIS_TYPE":0,"CLASSIFICATION_TYPE":"U","NORAD_CAT_ID":64539,"ELEMENT_SET_NO":999,"REV_AT_EPOCH":3976,"BSTAR":0.00049586231,"MEAN_MOTION_DOT":0.00011239,"MEAN_MOTION_DDOT":0},{"OBJECT_NAME":"QMR-KWT-2 (RS95S)","OBJECT_ID":"2025-313AV","EPOCH":"2026-03-09T22:24:23.954112","MEAN_MOTION":15.23495357,"ECCENTRICITY":0.00086588,"INCLINATION":97.4002,"RA_OF_ASC_NODE":145.3491,"ARG_OF_PERICENTER":352.0298,"MEAN_ANOMALY":8.08,"EPHEMERIS_TYPE":0,"CLASSIFICATION_TYPE":"U","NORAD_CAT_ID":67291,"ELEMENT_SET_NO":999,"REV_AT_EPOCH":1086,"BSTAR":0.00073635418,"MEAN_MOTION_DOT":0.00017543,"MEAN_MOTION_DDOT":0}]
